{
  "norad_id": 45071,
  "name": "STARLINK-1167",
  "history": [
    {
      "epoch": "2026-03-28T15:18:35.514720Z",
      "apogee_km": 475.3021018281497,
      "perigee_km": 472.1496967454459,
      "latitude_deg": -5.034355136349706e-06,
      "longitude_deg": 114.1719286029802,
      "height_km": 473.4214378124793,
      "semi_major_axis_km": 6851.862899286798,
      "eccentricity": 0.00023004,
      "inclination_deg": 53.1586,
      "raan_deg": 169.8754,
      "arg_perigee_deg": 40.2897,
      "mean_anomaly_deg": 319.8274,
      "mean_motion_rev_day": 15.30698883
    },
    {
      "epoch": "2026-03-29T08:32:48.533856Z",
      "apogee_km": 475.15108935916396,
      "perigee_km": 471.8248994893702,
      "latitude_deg": -5.591145626089105e-07,
      "longitude_deg": -148.42941079543988,
      "height_km": 473.12494915691104,
      "semi_major_axis_km": 6851.624994424266,
      "eccentricity": 0.00024273,
      "inclination_deg": 53.1591,
      "raan_deg": 166.5362,
      "arg_perigee_deg": 40.7006,
      "mean_anomaly_deg": 319.4176,
      "mean_motion_rev_day": 15.30778608
    },
    {
      "epoch": "2026-03-30T14:19:05.383776Z",
      "apogee_km": 474.8837286424741,
      "perigee_km": 471.5816425088142,
      "latitude_deg": -6.117818653089326e-05,
      "longitude_deg": 118.00587127380619,
      "height_km": 473.0178820728051,
      "semi_major_axis_km": 6851.369685575643,
      "eccentricity": 0.00024098,
      "inclination_deg": 53.1601,
      "raan_deg": 160.7644,
      "arg_perigee_deg": 47.6395,
      "mean_anomaly_deg": 312.4809,
      "mean_motion_rev_day": 15.30864173
    },
    {
      "epoch": "2026-03-31T10:41:10.649760Z",
      "apogee_km": 474.700713635968,
      "perigee_km": 470.954880123626,
      "latitude_deg": -1.6954840667214956e-05,
      "longitude_deg": 167.7065743599337,
      "height_km": 472.1786407578443,
      "semi_major_axis_km": 6850.964796879796,
      "eccentricity": 0.00027338,
      "inclination_deg": 53.159,
      "raan_deg": 156.8235,
      "arg_perigee_deg": 34.3066,
      "mean_anomaly_deg": 325.8111,
      "mean_motion_rev_day": 15.30999885
    },
    {
      "epoch": "2026-04-01T10:11:09.347136Z",
      "apogee_km": 474.38534605996574,
      "perigee_km": 470.4079262308196,
      "latitude_deg": 5.365900968991088e-05,
      "longitude_deg": 169.69066002814836,
      "height_km": 471.8436343004794,
      "semi_major_axis_km": 6850.533636145392,
      "eccentricity": 0.0002903,
      "inclination_deg": 53.1589,
      "raan_deg": 152.2672,
      "arg_perigee_deg": 43.1738,
      "mean_anomaly_deg": 316.9491,
      "mean_motion_rev_day": 15.31144425
    },
    {
      "epoch": "2026-04-02T20:38:52.602720Z",
      "apogee_km": 474.09992873134524,
      "perigee_km": 469.3954279342661,
      "latitude_deg": 2.2803820045084716e-05,
      "longitude_deg": 4.663502066120877,
      "height_km": 470.98539243977035,
      "semi_major_axis_km": 6849.884678332805,
      "eccentricity": 0.0003434,
      "inclination_deg": 53.1584,
      "raan_deg": 145.5856,
      "arg_perigee_deg": 45.1483,
      "mean_anomaly_deg": 314.9797,
      "mean_motion_rev_day": 15.31362021
    },
    {
      "epoch": "2026-04-02T20:38:52.603584Z",
      "apogee_km": 474.0997917336508,
      "perigee_km": 469.3955649319596,
      "latitude_deg": 2.41067995099765e-05,
      "longitude_deg": 4.663499427093084,
      "height_km": 470.98548905979516,
      "semi_major_axis_km": 6849.884678332805,
      "eccentricity": 0.00034338,
      "inclination_deg": 53.1584,
      "raan_deg": 145.5856,
      "arg_perigee_deg": 45.1483,
      "mean_anomaly_deg": 314.9797,
      "mean_motion_rev_day": 15.31362021
    },
    {
      "epoch": "2026-04-03T10:44:43.325952Z",
      "apogee_km": 474.0568247743204,
      "perigee_km": 469.27634685178145,
      "latitude_deg": 7.521845224914796e-05,
      "longitude_deg": 149.89203378508859,
      "height_km": 470.86464491101685,
      "semi_major_axis_km": 6849.803585813051,
      "eccentricity": 0.00034895,
      "inclination_deg": 53.1599,
      "raan_deg": 142.8544,
      "arg_perigee_deg": 44.7072,
      "mean_anomaly_deg": 315.4211,
      "mean_motion_rev_day": 15.31389215
    },
    {
      "epoch": "2026-04-04T11:48:13.445856Z",
      "apogee_km": 473.56885619502555,
      "perigee_km": 468.5399059153997,
      "latitude_deg": -1.8324873249334866e-05,
      "longitude_deg": 128.1275534306867,
      "height_km": 470.0714940222786,
      "semi_major_axis_km": 6849.191381055212,
      "eccentricity": 0.00036712,
      "inclination_deg": 53.1564,
      "raan_deg": 137.9946,
      "arg_perigee_deg": 41.6294,
      "mean_anomaly_deg": 318.4986,
      "mean_motion_rev_day": 15.31594541
    },
    {
      "epoch": "2026-04-05T09:43:44.378400Z",
      "apogee_km": 473.4603973547428,
      "perigee_km": 468.31362976951186,
      "latitude_deg": -1.2121904687553934e-05,
      "longitude_deg": 154.09733285048156,
      "height_km": 469.9571178209121,
      "semi_major_axis_km": 6849.024013562127,
      "eccentricity": 0.00037573,
      "inclination_deg": 53.1561,
      "raan_deg": 133.7437,
      "arg_perigee_deg": 44.7956,
      "mean_anomaly_deg": 315.3348,
      "mean_motion_rev_day": 15.31650682
    },
    {
      "epoch": "2026-04-05T19:07:30.050976Z",
      "apogee_km": 473.34301746626625,
      "perigee_km": 467.9626081893093,
      "latitude_deg": -8.99926152726313e-06,
      "longitude_deg": 10.948551240136512,
      "height_km": 469.91955858408966,
      "semi_major_axis_km": 6848.7898128277875,
      "eccentricity": 0.0003928,
      "inclination_deg": 53.1575,
      "raan_deg": 131.9211,
      "arg_perigee_deg": 52.7354,
      "mean_anomaly_deg": 307.4005,
      "mean_motion_rev_day": 15.31729247
    },
    {
      "epoch": "2026-04-06T02:57:17.066016Z",
      "apogee_km": 473.2750392478865,
      "perigee_km": 467.7384586683538,
      "latitude_deg": -1.2195537308445101e-05,
      "longitude_deg": -108.34060324842804,
      "height_km": 469.43824569494603,
      "semi_major_axis_km": 6848.64374895812,
      "eccentricity": 0.00040421,
      "inclination_deg": 53.1561,
      "raan_deg": 130.3994,
      "arg_perigee_deg": 44.7946,
      "mean_anomaly_deg": 315.3381,
      "mean_motion_rev_day": 15.31778249
    },
    {
      "epoch": "2026-04-07T08:42:14.992128Z",
      "apogee_km": 472.60491179654764,
      "perigee_km": 466.88460224963546,
      "latitude_deg": 7.288297590242592e-06,
      "longitude_deg": 158.422183803687,
      "height_km": 468.95651454317243,
      "semi_major_axis_km": 6847.881757023091,
      "eccentricity": 0.00041767,
      "inclination_deg": 53.1564,
      "raan_deg": 124.6253,
      "arg_perigee_deg": 53.9423,
      "mean_anomaly_deg": 306.1965,
      "mean_motion_rev_day": 15.32033927
    },
    {
      "epoch": "2026-04-08T11:19:10.554816Z",
      "apogee_km": 472.2786826217425,
      "perigee_km": 466.51552401902427,
      "latitude_deg": 3.4912241693103384e-05,
      "longitude_deg": 112.9316328241558,
      "height_km": 468.7798081675941,
      "semi_major_axis_km": 6847.534103320383,
      "eccentricity": 0.00042082,
      "inclination_deg": 53.1568,
      "raan_deg": 119.4593,
      "arg_perigee_deg": 58.3447,
      "mean_anomaly_deg": 301.7965,
      "mean_motion_rev_day": 15.32150602
    },
    {
      "epoch": "2026-04-09T07:40:15.743424Z",
      "apogee_km": 471.9819752472704,
      "perigee_km": 466.24083135103956,
      "latitude_deg": 3.7636583238639625e-05,
      "longitude_deg": 162.87350909812102,
      "height_km": 468.57456540167215,
      "semi_major_axis_km": 6847.248403299154,
      "eccentricity": 0.00041923,
      "inclination_deg": 53.1572,
      "raan_deg": 115.5086,
      "arg_perigee_deg": 60.0801,
      "mean_anomaly_deg": 300.0617,
      "mean_motion_rev_day": 15.32246496
    },
    {
      "epoch": "2026-04-10T07:09:08.936640Z",
      "apogee_km": 471.9586071683125,
      "perigee_km": 465.88937230700867,
      "latitude_deg": 6.283928719380576e-06,
      "longitude_deg": 165.12949606715864,
      "height_km": 468.515679581849,
      "semi_major_axis_km": 6847.06098973766,
      "eccentricity": 0.0004432,
      "inclination_deg": 53.1595,
      "raan_deg": 110.9506,
      "arg_perigee_deg": 64.5735,
      "mean_anomaly_deg": 295.5725,
      "mean_motion_rev_day": 15.32309406
    },
    {
      "epoch": "2026-04-12T17:04:04.063296Z",
      "apogee_km": 471.49336301332005,
      "perigee_km": 465.15107705025275,
      "latitude_deg": -3.693750896063387e-05,
      "longitude_deg": 2.7737684833398055,
      "height_km": 468.17024289823735,
      "semi_major_axis_km": 6846.459220031787,
      "eccentricity": 0.00046318,
      "inclination_deg": 53.1586,
      "raan_deg": 99.7031,
      "arg_perigee_deg": 70.7419,
      "mean_anomaly_deg": 289.4083,
      "mean_motion_rev_day": 15.32511434
    },
    {
      "epoch": "2026-04-14T16:01:12.900288Z",
      "apogee_km": 470.1894129264401,
      "perigee_km": 464.945603273236,
      "latitude_deg": -5.635803184035879e-06,
      "longitude_deg": 7.436803657211703,
      "height_km": 467.79573038519993,
      "semi_major_axis_km": 6845.704508099838,
      "eccentricity": 0.000383,
      "inclination_deg": 53.1584,
      "raan_deg": 90.5812,
      "arg_perigee_deg": 75.2633,
      "mean_anomaly_deg": 284.8793,
      "mean_motion_rev_day": 15.32764871
    },
    {
      "epoch": "2026-04-15T15:29:32.667936Z",
      "apogee_km": 469.74018774565957,
      "perigee_km": 464.6322075755652,
      "latitude_deg": 2.8260103461451907e-05,
      "longitude_deg": 9.826998243280919,
      "height_km": 467.28136546714427,
      "semi_major_axis_km": 6845.323197660612,
      "eccentricity": 0.0003731,
      "inclination_deg": 53.1587,
      "raan_deg": 86.0177,
      "arg_perigee_deg": 71.7372,
      "mean_anomaly_deg": 288.4036,
      "mean_motion_rev_day": 15.32892944
    },
    {
      "epoch": "2026-04-16T14:57:49.963680Z",
      "apogee_km": 469.61516612933883,
      "perigee_km": 464.4415901365455,
      "latitude_deg": 2.372755913312026e-05,
      "longitude_deg": 12.23079209261193,
      "height_km": 467.3431544902864,
      "semi_major_axis_km": 6845.165378132942,
      "eccentricity": 0.0003779,
      "inclination_deg": 53.1565,
      "raan_deg": 81.4575,
      "arg_perigee_deg": 77.0365,
      "mean_anomaly_deg": 283.1059,
      "mean_motion_rev_day": 15.32945957
    }
  ]
}